NORAD_CAT_ID,OBJECT_NAME,OBJECT_TYPE,EPOCH,MEAN_MOTION,ECCENTRICITY,INCLINATION,RA_OF_ASC_NODE,ARG_OF_PERICENTER,MEAN_ANOMALY,BSTAR,MEAN_MOTION_DOT,MEAN_MOTION_DDOT,TLE_LINE0,TLE_LINE1,TLE_LINE2,SEMIMAJOR_AXIS,PERIOD,APOGEE,PERIGEE,DECAYED
52298.0,STARLINK-3760,PAYLOAD,2024-02-19 18:49:10,15.08837753,0.0001383,53.2173,220.7041,93.7509,266.3641,3.256e-05,2.3e-06,0.0,0 STARLINK-3760,1 52298U 22041AP  24050.78415192  .00000230  00000-0  32560-4 0  9998,2 52298  53.2173 220.7041 0001383  93.7509 266.3641 15.08837753101459,6917.887,95.438,540.709,538.796,0.0
52298.0,STARLINK-3760,PAYLOAD,2024-02-20 10:43:02,15.08831437,0.0001462,53.2164,217.7294,85.5955,274.5204,5.8801e-06,-1.94e-06,0.0,0 STARLINK-3760,1 52298U 22041AP  24051.44655884 -.00000194  00000-0  58801-5 0  9993,2 52298  53.2164 217.7294 0001462  85.5955 274.5204 15.08831437102761,6917.907,95.438,540.783,538.76,0.0
52298.0,STARLINK-3760,PAYLOAD,2024-02-20 18:39:58,15.08835717,0.0001382,53.2167,216.2432,84.2677,275.8473,8.826e-06,-1.47e-06,0.0,0 STARLINK-3760,1 52298U 22041AP  24051.77775770 -.00000147  00000-0  88260-5 0  9996,2 52298  53.2167 216.2432 0001382  84.2677 275.8473 15.08835717101609,6917.893,95.438,540.715,538.802,0.0
52298.0,STARLINK-3760,PAYLOAD,2024-02-21 04:12:16,15.08843671,0.0001391,53.2168,214.4591,82.8158,277.2992,2.6209e-05,1.29e-06,0.0,0 STARLINK-3760,1 52298U 22041AP  24052.17519184  .00000129  00000-0  26209-4 0  9999,2 52298  53.2168 214.4591 0001391  82.8158 277.2992 15.08843671102874,6917.869,95.437,540.696,538.772,0.0
52298.0,STARLINK-3760,PAYLOAD,2024-02-21 16:55:21,15.08846202,0.0001346,53.216,212.0791,85.0375,275.0771,0.00013371,1.841e-05,0.0,0 STARLINK-3760,1 52298U 22041AP  24052.70510595  .00001841  00000-0  13371-3 0  9992,2 52298  53.2160 212.0791 0001346  85.0375 275.0771 15.08846202101747,6917.861,95.437,540.658,538.795,0.0
52298.0,STARLINK-3760,PAYLOAD,2024-02-22 13:35:22,15.08832739,0.000137,53.2166,208.2145,83.2367,276.8781,4.3368e-05,4.02e-06,0.0,0 STARLINK-3760,1 52298U 22041AP  24053.56623645  .00000402  00000-0  43368-4 0  9990,2 52298  53.2166 208.2145 0001370  83.2367 276.8781 15.08832739101875,6917.903,95.438,540.715,538.82,0.0
52298.0,STARLINK-3760,PAYLOAD,2024-02-22 16:46:08,15.08831873,0.0001155,53.2179,207.6173,96.5899,263.5225,0.00014574,2.032e-05,0.0,0 STARLINK-3760,1 52298U 22041AP  24053.69871351  .00002032  00000-0  14574-3 0  9990,2 52298  53.2179 207.6173 0001155  96.5899 263.5225 15.08831873103103,6917.905,95.438,540.569,538.971,0.0
52298.0,STARLINK-3760,PAYLOAD,2024-02-23 13:26:09,15.0883849,0.0001503,53.2178,203.7502,99.819,260.2972,-9.0706e-05,-1.731e-05,0.0,0 STARLINK-3760,1 52298U 22041AP  24054.55983748 -.00001731  00000-0 -90706-4 0  9999,2 52298  53.2178 203.7502 0001503  99.8190 260.2972 15.08838490102027,6917.885,95.438,540.79,538.71,0.0
52298.0,STARLINK-3760,PAYLOAD,2024-02-23 16:36:56,15.08832491,0.0001395,53.2181,203.1577,95.7377,264.3774,2.0165e-05,3.3e-07,0.0,0 STARLINK-3760,1 52298U 22041AP  24054.69231849  .00000033  00000-0  20165-4 0  9996,2 52298  53.2181 203.1577 0001395  95.7377 264.3774 15.08832491102040,6917.903,95.438,540.733,538.803,0.0
52298.0,STARLINK-3760,PAYLOAD,2024-02-24 10:06:10,15.08837334,0.000135,53.2171,199.8869,96.5667,263.5479,4.5459e-05,4.36e-06,0.0,0 STARLINK-3760,1 52298U 22041AP  24055.42095441  .00000436  00000-0  45459-4 0  9994,2 52298  53.2171 199.8869 0001350  96.5667 263.5479 15.08837334103366,6917.889,95.438,540.687,538.82,0.0
52298.0,STARLINK-3760,PAYLOAD,2024-02-24 13:16:56,15.08839106,0.0001365,53.2173,199.2921,96.5873,263.5274,5.6632e-05,6.13e-06,0.0,0 STARLINK-3760,1 52298U 22041AP  24055.55343305  .00000613  00000-0  56632-4 0  9995,2 52298  53.2173 199.2921 0001365  96.5873 263.5274 15.08839106102176,6917.883,95.438,540.692,538.804,0.0
52298.0,STARLINK-3760,PAYLOAD,2024-02-24 16:27:42,15.08843858,0.0001334,53.2176,198.6999,95.639,264.4754,9.2978e-05,1.192e-05,0.0,0 STARLINK-3760,1 52298U 22041AP  24055.68590943  .00001192  00000-0  92978-4 0  9997,2 52298  53.2176 198.6999 0001334  95.6390 264.4754 15.08843858103406,6917.869,95.437,540.656,538.811,0.0
52298.0,STARLINK-3760,PAYLOAD,2024-02-25 09:56:57,15.0883659,0.0001406,53.2176,195.4304,99.7656,260.3495,5.4474e-05,5.79e-06,0.0,0 STARLINK-3760,1 52298U 22041AP  24056.41455612  .00000579  00000-0  54474-4 0  9999,2 52298  53.2176 195.4304 0001406  99.7656 260.3495 15.08836590103515,6917.891,95.438,540.728,538.783,0.0
52298.0,STARLINK-3760,PAYLOAD,2024-02-25 14:43:06,15.08842645,0.0001325,53.2173,194.5356,92.1985,267.9159,8.7075e-05,1.098e-05,0.0,0 STARLINK-3760,1 52298U 22041AP  24056.61327132  .00001098  00000-0  87075-4 0  9996,2 52298  53.2173 194.5356 0001325  92.1985 267.9159 15.08842645102338,6917.872,95.437,540.654,538.821,0.0
52298.0,STARLINK-3760,PAYLOAD,2024-02-25 16:18:29,15.08844558,0.0001266,53.2173,194.2397,96.0699,264.0437,0.00010541,1.39e-05,0.0,0 STARLINK-3760,1 52298U 22041AP  24056.67950943  .00001390  00000-0  10541-3 0  9992,2 52298  53.2173 194.2397 0001266  96.0699 264.0437 15.08844558103556,6917.866,95.437,540.607,538.856,0.0
52298.0,STARLINK-3760,PAYLOAD,2024-02-26 14:33:54,15.08837439,0.0001725,53.2198,190.0795,95.0178,265.1011,-4.2996e-05,-9.72e-06,0.0,0 STARLINK-3760,1 52298U 22041AP  24057.60687993 -.00000972  00000-0 -42996-4 0  9995,2 52298  53.2198 190.0795 0001725  95.0178 265.1011 15.08837439102481,6917.888,95.438,540.947,538.56,0.0
52298.0,STARLINK-3760,PAYLOAD,2024-02-26 17:44:40,15.08841945,0.0001542,53.2188,189.4833,92.9649,267.152,-2.6906e-05,-7.16e-06,0.0,0 STARLINK-3760,1 52298U 22041AP  24057.73935592 -.00000716  00000-0 -26906-4 0  9999,2 52298  53.2188 189.4833 0001542  92.9649 267.1520 15.08841945103712,6917.874,95.437,540.806,538.673,0.0
52298.0,STARLINK-3760,PAYLOAD,2024-02-27 08:03:09,15.08834259,0.0001313,53.2164,186.8048,107.8359,252.2777,-8.61e-05,-1.658e-05,0.0,0 STARLINK-3760,1 52298U 22041AP  24058.33552399 -.00001658  00000-0 -86100-4 0  9994,2 52298  53.2164 186.8048 0001313 107.8359 252.2777 15.08834259103804,6917.898,95.438,540.671,538.855,0.0
52298.0,STARLINK-3760,PAYLOAD,2024-02-27 14:24:41,15.08835281,0.0001374,53.2171,185.6151,103.1172,256.9973,-7.1933e-05,-1.432e-05,0.0,0 STARLINK-3760,1 52298U 22041AP  24058.60048381 -.00001432  00000-0 -71933-4 0  9993,2 52298  53.2171 185.6151 0001374 103.1172 256.9973 15.08835281102638,6917.895,95.438,540.71,538.809,0.0
52298.0,STARLINK-3760,PAYLOAD,2024-02-27 17:35:28,15.08837324,0.0001467,53.2173,185.0208,76.824,283.2916,-4.5165e-05,-1.007e-05,0.0,0 STARLINK-3760,1 52298U 22041AP  24058.73296358 -.00001007  00000-0 -45165-4 0  9992,2 52298  53.2173 185.0208 0001467  76.8240 283.2916 15.08837324102654,6917.889,95.438,540.768,538.739,0.0
52298.0,STARLINK-3760,PAYLOAD,2024-02-28 14:15:29,15.08830795,0.000134,53.217,181.1546,89.8606,270.2539,6.8419e-05,8.01e-06,0.0,0 STARLINK-3760,1 52298U 22041AP  24059.59408648  .00000801  00000-0  68419-4 0  9990,2 52298  53.2170 181.1546 0001340  89.8606 270.2539 15.08830795102789,6917.909,95.438,540.701,538.847,0.0
52298.0,STARLINK-3760,PAYLOAD,2024-02-28 17:26:14,15.08848048,0.0001403,53.2175,180.5589,90.3108,269.8045,0.00010332,1.357e-05,0.0,0 STARLINK-3760,1 52298U 22041AP  24059.72655532  .00001357  00000-0  10332-3 0  9998,2 52298  53.2175 180.5589 0001403  90.3108 269.8045 15.08848048104012,6917.856,95.437,540.691,538.75,0.0
52298.0,STARLINK-3760,PAYLOAD,2024-02-29 07:44:43,15.08841823,0.0001674,53.2181,177.8829,90.1627,269.9557,8.4459e-05,1.056e-05,0.0,0 STARLINK-3760,1 52298U 22041AP  24060.32272144  .00001056  00000-0  84459-4 0  9998,2 52298  53.2181 177.8829 0001674  90.1627 269.9557 15.08841823104102,6917.875,95.437,540.898,538.582,0.0
52298.0,STARLINK-3760,PAYLOAD,2024-02-29 14:06:15,15.08846136,0.00017,53.2179,176.6937,90.4164,269.7023,0.00011312,1.513e-05,0.0,0 STARLINK-3760,1 52298U 22041AP  24060.58767672  .00001513  00000-0  11312-3 0  9996,2 52298  53.2179 176.6937 0001700  90.4164 269.7023 15.08846136102932,6917.862,95.437,540.903,538.551,0.0
52298.0,STARLINK-3760,PAYLOAD,2024-03-01 12:21:39,15.08843755,0.00014,53.2172,172.5319,89.1322,270.9831,-7.9834e-05,-1.558e-05,0.0,0 STARLINK-3760,1 52298U 22041AP  24061.51504423 -.00001558  00000-0 -79834-4 0  9998,2 52298  53.2172 172.5319 0001400  89.1322 270.9831 15.08843755104287,6917.869,95.437,540.702,538.765,0.0
52298.0,STARLINK-3760,PAYLOAD,2024-03-01 13:57:02,15.08843596,0.0001605,53.2181,172.2302,102.9297,257.1874,-1.1866e-05,-4.77e-06,0.0,0 STARLINK-3760,1 52298U 22041AP  24061.58128071 -.00000477  00000-0 -11866-4 0  9996,2 52298  53.2181 172.2302 0001605 102.9297 257.1874 15.08843596103082,6917.869,95.437,540.845,538.624,0.0
52298.0,STARLINK-3760,PAYLOAD,2024-03-02 13:47:49,15.0884695,0.0001392,53.2182,167.7728,97.1686,262.9465,-2.6015e-05,-7.02e-06,0.0,0 STARLINK-3760,1 52298U 22041AP  24062.57487766 -.00000702  00000-0 -26015-4 0  9998,2 52298  53.2182 167.7728 0001392  97.1686 262.9465 15.08846950103238,6917.859,95.437,540.687,538.761,0.0
52298.0,STARLINK-3760,PAYLOAD,2024-03-03 12:03:13,15.08836145,0.0001315,53.218,163.6101,96.8903,263.2239,1.2755e-05,-8.5e-07,0.0,0 STARLINK-3760,1 52298U 22041AP  24063.50224351 -.00000085  00000-0  12755-4 0  9990,2 52298  53.2180 163.6101 0001315  96.8903 263.2239 15.08836145104586,6917.892,95.438,540.667,538.847,0.0
52298.0,STARLINK-3760,PAYLOAD,2024-03-04 11:53:59,15.08850578,0.0001248,53.2181,159.1517,84.7509,275.3626,5.8134e-05,6.38e-06,0.0,0 STARLINK-3760,1 52298U 22041AP  24064.49583274  .00000638  00000-0  58134-4 0  9995,2 52298  53.2181 159.1517 0001248  84.7509 275.3626 15.08850578104738,6917.848,95.437,540.576,538.85,0.0
52298.0,STARLINK-3760,PAYLOAD,2024-03-04 13:29:22,15.08857044,0.0001397,53.2176,158.8564,115.444,244.6697,4.51e-05,4.3e-06,0.0,0 STARLINK-3760,1 52298U 22041AP  24064.56206789  .00000430  00000-0  45100-4 0  9995,2 52298  53.2176 158.8564 0001397 115.4440 244.6697 15.08857044103530,6917.828,95.436,540.66,538.727,0.0
